[{"OBJECT_NAME":"STARLINK-6255","OBJECT_ID":"2023-065AZ","EPOCH":"2026-03-09T22:00:01.999584","MEAN_MOTION":15.13105722,"ECCENTRICITY":0.00017096,"INCLINATION":43.0006,"RA_OF_ASC_NODE":221.4929,"ARG_OF_PERICENTER":303.1666,"MEAN_ANOMALY":153.6112,"EPHEMERIS_TYPE":0,"CLASSIFICATION_TYPE":"U","NORAD_CAT_ID":56550,"ELEMENT_SET_NO":999,"REV_AT_EPOCH":577,"BSTAR":0.0067152623,"MEAN_MOTION_DOT":0.00122895,"MEAN_MOTION_DDOT":0},{"OBJECT_NAME":"HINCUBE","OBJECT_ID":"2013-066AF","EPOCH":"2026-03-09T20:37:05.272320","MEAN_MOTION":15.06793635,"ECCENTRICITY":0.00336438,"INCLINATION":97.7872,"RA_OF_ASC_NODE":36.0584,"ARG_OF_PERICENTER":185.5277,"MEAN_ANOMALY":174.5583,"EPHEMERIS_TYPE":0,"CLASSIFICATION_TYPE":"U","NORAD_CAT_ID":39445,"ELEMENT_SET_NO":999,"REV_AT_EPOCH":66456,"BSTAR":0.00067193541,"MEAN_MOTION_DOT":0.00010075,"MEAN_MOTION_DDOT":0}]
